$$SOE
2459580.500000000, A.D. 2022-Jan-01 00:00:00.0000, 2.952223060663951E+08, -1.810746691292854E+08, 9.044491922030213E+07,
2459587.500000000, A.D. 2022-Jan-08 00:00:00.0000, 2.989059310554426E+08, -1.693897394861362E+08, 8.993381060928899E+07,
2459594.500000000, A.D. 2022-Jan-15 00:00:00.0000, 3.022657841661016E+08, -1.575213380931984E+08, 8.932517933149676E+07,
2459601.500000000, A.D. 2022-Jan-22 00:00:00.0000, 3.052904063896723E+08, -1.454782563313336E+08, 8.861737384952380E+07,
2459608.500000000, A.D. 2022-Jan-29 00:00:00.0000, 3.079683617671628E+08, -1.332700079204470E+08, 8.780883362559499E+07,
2459615.500000000, A.D. 2022-Feb-05 00:00:00.0000, 3.102882775196004E+08, -1.209068575486576E+08, 8.689810248952806E+07,
2459622.500000000, A.D. 2022-Feb-12 00:00:00.0000, 3.122388908563206E+08, -1.083998487130212E+08, 8.588384255455297E+07,
2459629.500000000, A.D. 2022-Feb-19 00:00:00.0000, 3.138091012689389E+08, -9.576082785081045E+07, 8.476484896155947E+07,
2459636.500000000, A.D. 2022-Feb-26 00:00:00.0000, 3.149880270813213E+08, -8.300246487922375E+07, 8.354006546082360E+07,
2459643.500000000, A.D. 2022-Mar-05 00:00:00.0000, 3.157650664320017E+08, -7.013827010326499E+07, 8.220860069267118E+07,
2459650.500000000, A.D. 2022-Mar-12 00:00:00.0000, 3.161299628510852E+08, -5.718260685248277E+07, 8.076974504413640E+07,
2459657.500000000, A.D. 2022-Mar-19 00:00:00.0000, 3.160728753531142E+08, -4.415069907296959E+07, 7.922298795450519E+07,
2459664.500000000, A.D. 2022-Mar-26 00:00:00.0000, 3.155844528158860E+08, -3.105863310488330E+07, 7.756803551697457E+07,
2459671.500000000, A.D. 2022-Apr-02 00:00:00.0000, 3.146559123448387E+08, -1.792335290962325E+07, 7.580482818653733E+07,
2459678.500000000, A.D. 2022-Apr-09 00:00:00.0000, 3.132791213971768E+08, -4.762647951502956E+06, 7.393355835932918E+07,
2459685.500000000, A.D. 2022-Apr-16 00:00:00.0000, 3.114466833821714E+08, 8.404867692591216E+06, 7.195468760146618E+07,
2459692.500000000, A.D. 2022-Apr-23 00:00:00.0000, 3.091520246851503E+08, 2.155978681491210E+07, 6.986896346356869E+07,
2459699.500000000, A.D. 2022-Apr-30 00:00:00.0000, 3.063894803219559E+08, 3.468194956513609E+07, 6.767743557888226E+07,
2459706.500000000, A.D. 2022-May-07 00:00:00.0000, 3.031543802086867E+08, 4.775049152583151E+07, 6.538147028465970E+07,
2459713.500000000, A.D. 2022-May-14 00:00:00.0000, 2.994431362067506E+08, 6.074390284264051E+07, 6.298276354764720E+07,
2459720.500000000, A.D. 2022-May-21 00:00:00.0000, 2.952533265553804E+08, 7.364009943866283E+07, 6.048335209316449E+07,
2459727.500000000, A.D. 2022-May-28 00:00:00.0000, 2.905837757470957E+08, 8.641650543089505E+07, 5.788562235249344E+07,
2459734.500000000, A.D. 2022-Jun-04 00:00:00.0000, 2.854346285722299E+08, 9.905014629005092E+07, 5.519231683285687E+07,
2459741.500000000, A.D. 2022-Jun-11 00:00:00.0000, 2.798074168748426E+08, 1.115177523531773E+08, 5.240653756926287E+07,
2459748.500000000, A.D. 2022-Jun-18 00:00:00.0000, 2.737051174464518E+08, 1.237958720429098E+08, 4.953174635706258E+07,
2459755.500000000, A.D. 2022-Jun-25 00:00:00.0000, 2.671321995117864E+08, 1.358609938211246E+08, 4.657176150174956E+07,
2459762.500000000, A.D. 2022-Jul-02 00:00:00.0000, 2.600946604527590E+08, 1.476896755884677E+08, 4.353075086178606E+07,
2459769.500000000, A.D. 2022-Jul-09 00:00:00.0000, 2.526000488112367E+08, 1.592586802062974E+08, 4.041322101768524E+07,
2459776.500000000, A.D. 2022-Jul-16 00:00:00.0000, 2.446574733467648E+08, 1.705451164650716E+08, 3.722400258516745E+07,
2459783.500000000, A.D. 2022-Jul-23 00:00:00.0000, 2.362775950110019E+08, 1.815265836119286E+08, 3.396823189124612E+07,
2459790.500000000, A.D. 2022-Jul-30 00:00:00.0000, 2.274726013001660E+08, 1.921813139695557E+08, 3.065132884721725E+07,
2459797.500000000, A.D. 2022-Aug-06 00:00:00.0000, 2.182561663184966E+08, 2.024883120507554E+08, 2.727897095097858E+07,
2459804.500000000, A.D. 2022-Aug-13 00:00:00.0000, 2.086433958152981E+08, 2.124274906103739E+08, 2.385706401344566E+07,
2459811.500000000, A.D. 2022-Aug-20 00:00:00.0000, 1.986507560835404E+08, 2.219798008312684E+08, 2.039171008926980E+07,
2459818.500000000, A.D. 2022-Aug-27 00:00:00.0000, 1.882959876170701E+08, 2.311273537023990E+08, 1.688917299828051E+07,
2459825.500000000, A.D. 2022-Sep-03 00:00:00.0000, 1.775980049570584E+08, 2.398535304211821E+08, 1.335584192215861E+07,
2459832.500000000, A.D. 2022-Sep-10 00:00:00.0000, 1.665767843261186E+08, 2.481430800133846E+08, 9.798193637206241E+06,
2459839.500000000, A.D. 2022-Sep-17 00:00:00.0000, 1.552532408713923E+08, 2.559822026236554E+08, 6.222753981496155E+06,
2459846.500000000, A.D. 2022-Sep-24 00:00:00.0000, 1.436490975971586E+08, 2.633586172133483E+08, 2.636059162819102E+06,
2459853.500000000, A.D. 2022-Oct-01 00:00:00.0000, 1.317867484105682E+08, 2.702616127982380E+08, -9.553825047725588E+05,
2459860.500000000, A.D. 2022-Oct-08 00:00:00.0000, 1.196891179668073E+08, 2.766820832910330E+08, -4.545127842711076E+06,
2459867.500000000, A.D. 2022-Oct-15 00:00:00.0000, 1.073795196869076E+08, 2.826125470736285E+08, -8.126834298913971E+06,
2459874.500000000, A.D. 2022-Oct-22 00:00:00.0000, 9.488151201160075E+07, 2.880471499009078E+08, -1.169429313408439E+07,
2459881.500000000, A.D. 2022-Oct-29 00:00:00.0000, 8.221875751185296E+07, 2.929816491977048E+08, -1.524146031813361E+07,
2459888.500000000, A.D. 2022-Nov-05 00:00:00.0000, 6.941488892872852E+07, 2.974133834664601E+08, -1.876248476001987E+07,
2459895.500000000, A.D. 2022-Nov-12 00:00:00.0000, 5.649338193042658E+07, 3.013412292912598E+08, -2.225173332397775E+07,
2459902.500000000, A.D. 2022-Nov-19 00:00:00.0000, 4.347743535965022E+07, 3.047655464124914E+08, -2.570381246279617E+07,
2459909.500000000, A.D. 2022-Nov-26 00:00:00.0000, 3.038986045381821E+07, 3.076881120601749E+08, -2.911358642590591E+07,
2459916.500000000, A.D. 2022-Dec-03 00:00:00.0000, 1.725298014206088E+07, 3.101120462145727E+08, -3.247619203790854E+07,
2459923.500000000, A.D. 2022-Dec-10 00:00:00.0000, 4.088539119928321E+06, 3.120417295309358E+08, -3.578705010050356E+07,
2459930.500000000, A.D. 2022-Dec-17 00:00:00.0000, -9.082374890562095E+06, 3.134827156083745E+08, -3.904187353401698E+07,
2459937.500000000, A.D. 2022-Dec-24 00:00:00.0000, -2.223939845831514E+07, 3.144416391845850E+08, -4.223667243711478E+07,
2459944.500000000, A.D. 2022-Dec-31 00:00:00.0000, -3.536294808462367E+07, 3.149261219190323E+08, -4.536775629310466E+07,
2459951.500000000, A.D. 2023-Jan-07 00:00:00.0000, -4.843426435387887E+07, 3.149446781657016E+08, -4.843173349283458E+07,
2459958.500000000, A.D. 2023-Jan-14 00:00:00.0000, -6.143544703381939E+07, 3.145066225356010E+08, -5.142550821600103E+07,
2459965.500000000, A.D. 2023-Jan-21 00:00:00.0000, -7.434948237255888E+07, 3.136219772164907E+08, -5.434627514536250E+07,
2459972.500000000, A.D. 2023-Jan-28 00:00:00.0000, -8.716025963895324E+07, 3.123013798331746E+08, -5.719151264539875E+07,
2459979.500000000, A.D. 2023-Feb-04 00:00:00.0000, -9.985257789643697E+07, 3.105559957097272E+08, -5.995897442347485E+07,
2459986.500000000, A.D. 2023-Feb-11 00:00:00.0000, -1.124121456181045E+08, 3.083974350060148E+08, -6.264667979851875E+07,
2459993.500000000, A.D. 2023-Feb-18 00:00:00.0000, -1.248255740400271E+08, 3.058376744113976E+08, -6.525290289493404E+07,
2460000.500000000, A.D. 2023-Feb-25 00:00:00.0000, -1.370803648242714E+08, 3.028889836008869E+08, -6.777616103783195E+07,
2460007.500000000, A.D. 2023-Mar-04 00:00:00.0000, -1.491648927444337E+08, 2.995638567143718E+08, -7.021520257667464E+07,
2460014.500000000, A.D. 2023-Mar-11 00:00:00.0000, -1.610683841465132E+08, 2.958749489899318E+08, -7.256899433810379E+07,
2460021.500000000, A.D. 2023-Mar-18 00:00:00.0000, -1.727808918750375E+08, 2.918350185359302E+08, -7.483670889286402E+07,
2460028.500000000, A.D. 2023-Mar-25 00:00:00.0000, -1.842932671455764E+08, 2.874568731472802E+08, -7.701771181419152E+07,
2460035.500000000, A.D. 2023-Apr-01 00:00:00.0000, -1.955971285657901E+08, 2.827533224442222E+08, -7.911154906792897E+07,
2460042.500000000, A.D. 2023-Apr-08 00:00:00.0000, -2.066848294871283E+08, 2.777371363895960E+08, -8.111793449099042E+07,
2460049.500000000, A.D. 2023-Apr-15 00:00:00.0000, -2.175494265283590E+08, 2.724210088685260E+08, -8.303673732814790E+07,
2460056.500000000, A.D. 2023-Apr-22 00:00:00.0000, -2.281846479005326E+08, 2.668175230314179E+08, -8.486797031389885E+07,
2460063.500000000, A.D. 2023-Apr-29 00:00:00.0000, -2.385848591865650E+08, 2.609391203756021E+08, -8.661177841883205E+07,
2460070.500000000, A.D. 2023-May-06 00:00:00.0000, -2.487450286807568E+08, 2.547980750637591E+08, -8.826842799968275E+07,
2460077.500000000, A.D. 2023-May-13 00:00:00.0000, -2.586606935561658E+08, 2.484064723033400E+08, -8.983829637386198E+07,
2460084.500000000, A.D. 2023-May-20 00:00:00.0000, -2.683279268657452E+08, 2.417761900124601E+08, -9.132186190543145E+07,
2460091.500000000, A.D. 2023-May-27 00:00:00.0000, -2.777433053792598E+08, 2.349188834626319E+08, -9.271969463752137E+07,
2460098.500000000, A.D. 2023-Jun-03 00:00:00.0000, -2.869038783541814E+08, 2.278459726505822E+08, -9.403244747974500E+07,
2460105.500000000, A.D. 2023-Jun-10 00:00:00.0000, -2.958071373381793E+08, 2.205686321205942E+08, -9.526084795138906E+07,
2460112.500000000, A.D. 2023-Jun-17 00:00:00.0000, -3.044509870059913E+08, 2.130977829240354E+08, -9.640569048487704E+07,
2460119.500000000, A.D. 2023-Jun-24 00:00:00.0000, -3.128337167768430E+08, 2.054440865320561E+08, -9.746782930118181E+07,
2460126.500000000, A.D. 2023-Jul-01 00:00:00.0000, -3.209539730033990E+08, 1.976179413046108E+08, -9.844817179620779E+07,
2460133.500000000, A.D. 2023-Jul-08 00:00:00.0000, -3.288107334325833E+08, 1.896294821286668E+08, -9.934767219907737E+07,
2460140.500000000, A.D. 2023-Jul-15 00:00:00.0000, -3.364032852259400E+08, 1.814885802045986E+08, -1.001673255974189E+08,
2460147.500000000, A.D. 2023-Jul-22 00:00:00.0000, -3.437312030113397E+08, 1.732048417710386E+08, -1.009081627147448E+08,
$$EOE